IRIDIUM 57 [-]          
1 25273U 98019B   23311.51261257  .00001026  00000+0  35380-3 0  9995
2 25273  86.4006  31.3471 0002101  93.1605 266.9831 14.34974698340481
IRIDIUM 63 [-]          
1 25286U 98021B   23311.75710562  .00000927  00000+0  31589-3 0  9992
2 25286  86.3969 328.2049 0002254  86.7775 273.3679 14.35477970339815
IRIDIUM 69 [-]          
1 25319U 98026A   23312.12623332  .00001060  00000+0  33292-3 0  9996
2 25319  86.3994 343.0796 0003739 125.7993 234.3554 14.39656481338806
IRIDIUM 71 [-]          
1 25320U 98026B   23312.45392392  .00000779  00000+0  24142-3 0  9993
2 25320  86.3979 337.7644 0001849 154.4269 205.7022 14.39984520339371
IRIDIUM 73 [-]          
1 25344U 98032C   23311.51968466  .00001419  00000+0  36072-3 0  9990
2 25344  86.4373 295.9310 0002471 104.9261 255.2218 14.50114587345651
IRIDIUM 82 [-]          
1 25467U 98051A   23312.26812199  .00014745  00000+0  85933-3 0  9997
2 25467  86.3990  30.1995 0142456 312.1483  46.7717 15.03602154335079
IRIDIUM 2 [-]           
1 25527U 98066A   23312.38139034  .00058853  00000+0  12629-2 0  9992
2 25527  85.5163  83.5444 0005057  97.6054 262.5775 15.44476521372855
